STARLINK-31224          
1 59029U 24038G   26068.90618183 -.00000550  00000+0 -10485-4 0  9993
2 59029  43.0027  25.5928 0000655 264.7705  95.3072 15.27573382114792
OTTER                   
1 62623U 25009Q   26068.72300813  .00012198  00000+0  45151-3 0  9990
2 62623  97.4065 151.3812 0003572 310.7710  49.3219 15.27809545 63721
