[{"OBJECT_NAME":"STARLINK-31224","OBJECT_ID":"2024-038G","EPOCH":"2026-03-09T21:44:54.110976","MEAN_MOTION":15.27573382,"ECCENTRICITY":6.55e-5,"INCLINATION":43.0027,"RA_OF_ASC_NODE":25.5928,"ARG_OF_PERICENTER":264.7705,"MEAN_ANOMALY":95.3072,"EPHEMERIS_TYPE":0,"CLASSIFICATION_TYPE":"U","NORAD_CAT_ID":59029,"ELEMENT_SET_NO":999,"REV_AT_EPOCH":11479,"BSTAR":-1.0485071e-5,"MEAN_MOTION_DOT":-5.5e-6,"MEAN_MOTION_DDOT":0},{"OBJECT_NAME":"OTTER","OBJECT_ID":"2025-009Q","EPOCH":"2026-03-09T17:21:07.902432","MEAN_MOTION":15.27809545,"ECCENTRICITY":0.00035728,"INCLINATION":97.4065,"RA_OF_ASC_NODE":151.3812,"ARG_OF_PERICENTER":310.771,"MEAN_ANOMALY":49.3219,"EPHEMERIS_TYPE":0,"CLASSIFICATION_TYPE":"U","NORAD_CAT_ID":62623,"ELEMENT_SET_NO":999,"REV_AT_EPOCH":6372,"BSTAR":0.00045151206,"MEAN_MOTION_DOT":0.00012198,"MEAN_MOTION_DDOT":0}]
